OBJECT_NAME,OBJECT_ID,EPOCH,MEAN_MOTION,ECCENTRICITY,INCLINATION,RA_OF_ASC_NODE,ARG_OF_PERICENTER,MEAN_ANOMALY,EPHEMERIS_TYPE,CLASSIFICATION_TYPE,NORAD_CAT_ID,ELEMENT_SET_NO,REV_AT_EPOCH,BSTAR,MEAN_MOTION_DOT,MEAN_MOTION_DDOT
STARLINK-3826,2022-045S,2026-05-28T03:23:17.208960,15.08835600,.00010621,53.2033,202.4548,78.5110,281.6002,0,U,52347,999,22777,.35021678E-4,.27E-5,0
STARLINK-3829,2022-045T,2026-05-27T12:36:56.463264,15.08835513,.00013025,53.2035,205.2108,83.7790,276.3351,0,U,52348,999,22768,.36175194E-4,.288E-5,0
STARLINK-3819,2022-045U,2026-05-28T06:22:04.795392,15.08835941,.00011358,53.2037,201.8881,107.2411,252.8706,0,U,52349,999,22779,.31119296E-4,.207E-5,0
STARLINK-3754,2022-045V,2026-05-28T02:50:06.584928,15.08843219,.00012163,53.2027,202.5503,95.2347,264.8784,0,U,52350,999,22777,-.28832087E-4,-.747E-5,0
STARLINK-3838,2022-045X,2026-05-28T04:09:35.925408,15.08836832,.00013763,53.2033,202.3038,85.3349,274.7800,0,U,52352,999,22778,-.30531515E-4,-.774E-5,0
STARLINK-3807,2022-045Y,2026-05-28T04:20:11.906304,15.08837971,.0001391,53.2031,202.2710,96.9356,263.1795,0,U,52353,999,22778,-.57729246E-4,-.1207E-4,0
STARLINK-3877,2022-045AA,2026-05-28T04:14:53.875680,15.08834923,.00011675,53.2035,202.2865,83.0914,277.0211,0,U,52355,999,22778,-.163666E-4,-.548E-5,0
STARLINK-3801,2022-045AB,2026-05-28T03:59:00.122496,15.08837417,.00012065,53.2029,202.3630,81.5901,278.5228,0,U,52356,999,22778,-.8540758E-5,-.424E-5,0
STARLINK-3821,2022-045AC,2026-05-28T04:04:17.739264,15.08836884,.0001201,53.2030,202.3199,93.6528,266.4601,0,U,52357,999,22778,-.21035004E-4,-.623E-5,0
STARLINK-3837,2022-045AD,2026-05-28T03:37:48.132192,15.08838366,.00014693,53.2040,202.4032,89.5170,270.5990,0,U,52358,999,22778,.83004257E-4,.1033E-4,0
STARLINK-3853,2022-045AE,2026-05-28T04:00:22.550688,15.08835834,.00012357,53.2029,202.3436,85.3832,274.7301,0,U,52359,999,22778,.9633505E-5,-.135E-5,0
STARLINK-3728,2022-045AG,2026-05-28T06:59:09.915072,15.08841113,.00012172,53.2050,201.7739,90.3107,269.8025,0,U,52361,999,22780,.41313115E-4,.37E-5,0
STARLINK-3848,2022-045AH,2026-05-28T06:34:01.344288,15.08823597,.00008876,53.2037,191.8524,71.5029,288.6060,0,U,52362,999,22793,.18200662E-3,.2609E-4,0
STARLINK-3830,2022-045AJ,2026-05-28T06:53:52.247328,15.08836709,.00013153,53.2038,201.7913,97.7954,262.3187,0,U,52363,999,22780,-.7406543E-5,-.406E-5,0
STARLINK-3820,2022-045AK,2026-05-28T06:12:46.111392,15.08861005,.00014624,53.2048,191.8330,70.3056,289.8093,0,U,52364,999,22793,-.51477662E-3,-.8476E-4,0
STARLINK-3874,2022-045AL,2026-05-28T06:44:36.002400,15.08836350,.00013936,53.2034,191.8178,89.5796,270.5355,0,U,52365,999,22793,-.23750375E-4,-.666E-5,0
STARLINK-3808,2022-045AM,2026-05-28T06:18:05.654016,15.08842295,.00011357,53.2057,191.9012,86.4627,273.6495,0,U,52366,999,22793,.43829133E-4,.41E-5,0
STARLINK-3817,2022-045AN,2026-05-28T06:28:41.886336,15.08839219,.00012358,53.2026,191.8686,79.5396,280.5735,0,U,52367,999,22793,.6896879E-5,-.178E-5,0
STARLINK-3834,2022-045AP,2026-05-27T12:32:57.621696,15.08840277,.00013766,53.2051,195.2232,61.0357,299.0773,0,U,52368,999,22781,.85136794E-4,.1067E-4,0
STARLINK-3841,2022-045AQ,2026-05-28T06:23:23.885088,15.08839178,.00014513,53.2043,191.8858,95.0259,265.0899,0,U,52369,999,22793,.18933092E-4,.13E-6,0
STARLINK-3827,2022-045AR,2026-05-28T06:14:10.850784,15.08837157,.00012133,53.2055,191.9236,106.8888,253.2237,0,U,52370,999,22793,.64052E-7,-.287E-5,0
STARLINK-3798,2022-045AS,2026-05-28T06:08:53.407680,15.08848999,.00010993,53.2050,191.9415,97.8846,262.2271,0,U,52371,999,22792,.68964845E-4,.81E-5,0
STARLINK-3796,2022-045AT,2026-05-28T05:56:54.303936,15.08837792,.00009915,53.2024,191.9674,85.4717,274.6388,0,U,52372,999,22792,.50052198E-4,.509E-5,0
STARLINK-3550,2022-045AU,2026-05-27T10:36:23.052672,15.08835584,.00012066,53.2050,195.5851,71.9275,288.1849,0,U,52373,999,22781,.3248234E-4,.229E-5,0
STARLINK-3762,2022-045AV,2026-05-27T10:41:40.704000,15.08837038,.00010805,53.2047,195.5692,68.8163,291.2945,0,U,52374,999,22781,.54461331E-4,.579E-5,0
STARLINK-3785,2022-045AW,2026-05-27T10:47:02.562144,15.08759982,.00016318,53.2061,195.5487,120.8514,239.2639,0,U,52375,999,22781,.19193773E-3,.2762E-4,0
STARLINK-3805,2022-045AY,2026-05-28T02:56:46.306752,15.08837740,.0001341,53.2052,192.7518,78.9385,281.1758,0,U,52377,999,22790,.16716179E-4,-.22E-6,0
STARLINK-3806,2022-045AZ,2026-05-28T07:00:30.052800,15.08833659,.0001249,53.2037,191.7715,75.9576,284.1555,0,U,52378,999,22794,.29588195E-4,.183E-5,0
STARLINK-3800,2022-045BA,2026-05-28T07:05:47.787936,15.08837720,.00012317,53.2036,191.7528,67.9308,292.1815,0,U,52379,999,22794,.39201446E-4,.336E-5,0
STARLINK-3793,2022-045BB,2026-05-28T06:35:19.952736,15.08835887,.00012112,53.2035,181.8771,81.1487,278.9642,0,U,52380,999,22807,.35109734E-4,.271E-5,0
