STARLINK-3826           
1 52347U 22045S   26148.14117140  .00000270  00000+0  35022-4 0  9998
2 52347  53.2033 202.4548 0001062  78.5110 281.6002 15.08835600227775
STARLINK-3829           
1 52348U 22045T   26147.52565351  .00000288  00000+0  36175-4 0  9990
2 52348  53.2035 205.2108 0001302  83.7790 276.3351 15.08835513227681
STARLINK-3819           
1 52349U 22045U   26148.26533328  .00000207  00000+0  31119-4 0  9996
2 52349  53.2037 201.8881 0001135 107.2411 252.8706 15.08835941227790
STARLINK-3754           
1 52350U 22045V   26148.11813177 -.00000747  00000+0 -28832-4 0  9994
2 52350  53.2027 202.5503 0001216  95.2347 264.8784 15.08843219227778
STARLINK-3838           
1 52352U 22045X   26148.17333247 -.00000774  00000+0 -30532-4 0  9997
2 52352  53.2033 202.3038 0001376  85.3349 274.7800 15.08836832227780
STARLINK-3807           
1 52353U 22045Y   26148.18069336 -.00001207  00000+0 -57729-4 0  9993
2 52353  53.2031 202.2710 0001391  96.9356 263.1795 15.08837971227788
STARLINK-3877           
1 52355U 22045AA  26148.17701245 -.00000548  00000+0 -16367-4 0  9996
2 52355  53.2035 202.2865 0001167  83.0914 277.0211 15.08834923227784
STARLINK-3801           
1 52356U 22045AB  26148.16597364 -.00000424  00000+0 -85408-5 0  9997
2 52356  53.2029 202.3630 0001206  81.5901 278.5228 15.08837417227787
STARLINK-3821           
1 52357U 22045AC  26148.16964976 -.00000623  00000+0 -21035-4 0  9991
2 52357  53.2030 202.3199 0001201  93.6528 266.4601 15.08836884227782
STARLINK-3837           
1 52358U 22045AD  26148.15125153  .00001033  00000+0  83004-4 0  9995
2 52358  53.2040 202.4032 0001469  89.5170 270.5990 15.08838366227788
STARLINK-3853           
1 52359U 22045AE  26148.16692767 -.00000135  00000+0  96335-5 0  9992
2 52359  53.2029 202.3436 0001235  85.3832 274.7301 15.08835834227782
STARLINK-3728           
1 52361U 22045AG  26148.29108698  .00000370  00000+0  41313-4 0  9999
2 52361  53.2050 201.7739 0001217  90.3107 269.8025 15.08841113227807
STARLINK-3848           
1 52362U 22045AH  26148.27362667  .00002609  00000+0  18201-3 0  9992
2 52362  53.2037 191.8524 0000887  71.5029 288.6060 15.08823597227938
STARLINK-3830           
1 52363U 22045AJ  26148.28741027 -.00000406  00000+0 -74065-5 0  9992
2 52363  53.2038 201.7913 0001315  97.7954 262.3187 15.08836709227801
STARLINK-3820           
1 52364U 22045AK  26148.25886703 -.00008476  00000+0 -51478-3 0  9997
2 52364  53.2048 191.8330 0001462  70.3056 289.8093 15.08861005227939
STARLINK-3874           
1 52365U 22045AL  26148.28097225 -.00000666  00000+0 -23750-4 0  9990
2 52365  53.2034 191.8178 0001393  89.5796 270.5355 15.08836350227934
STARLINK-3808           
1 52366U 22045AM  26148.26256544  .00000410  00000+0  43829-4 0  9994
2 52366  53.2057 191.9012 0001135  86.4627 273.6495 15.08842295227935
STARLINK-3817           
1 52367U 22045AN  26148.26992924 -.00000178  00000+0  68969-5 0  9999
2 52367  53.2026 191.8686 0001235  79.5396 280.5735 15.08839219227931
STARLINK-3834           
1 52368U 22045AP  26147.52288914  .00001067  00000+0  85137-4 0  9997
2 52368  53.2051 195.2232 0001376  61.0357 299.0773 15.08840277227814
STARLINK-3841           
1 52369U 22045AQ  26148.26624867  .00000013  00000+0  18933-4 0  9991
2 52369  53.2043 191.8858 0001451  95.0259 265.0899 15.08839178227937
STARLINK-3827           
1 52370U 22045AR  26148.25984781 -.00000287  00000+0  64052-7 0  9996
2 52370  53.2055 191.9236 0001213 106.8888 253.2237 15.08837157227938
STARLINK-3798           
1 52371U 22045AS  26148.25617370  .00000810  00000+0  68965-4 0  9999
2 52371  53.2050 191.9415 0001099  97.8846 262.2271 15.08848999227921
STARLINK-3796           
1 52372U 22045AT  26148.24785074  .00000509  00000+0  50052-4 0  9999
2 52372  53.2024 191.9674 0000991  85.4717 274.6388 15.08837792227925
STARLINK-3550           
1 52373U 22045AU  26147.44193348  .00000229  00000+0  32482-4 0  9994
2 52373  53.2050 195.5851 0001206  71.9275 288.1849 15.08835584227818
STARLINK-3762           
1 52374U 22045AV  26147.44561000  .00000579  00000+0  54461-4 0  9998
2 52374  53.2047 195.5692 0001080  68.8163 291.2945 15.08837038227817
STARLINK-3785           
1 52375U 22045AW  26147.44933521  .00002762  00000+0  19194-3 0  9999
2 52375  53.2061 195.5487 0001631 120.8514 239.2639 15.08759982227810
STARLINK-3805           
1 52377U 22045AY  26148.12275818 -.00000022  00000+0  16716-4 0  9991
2 52377  53.2052 192.7518 0001341  78.9385 281.1758 15.08837740227900
STARLINK-3806           
1 52378U 22045AZ  26148.29201450  .00000183  00000+0  29588-4 0  9999
2 52378  53.2037 191.7715 0001249  75.9576 284.1555 15.08833659227945
STARLINK-3800           
1 52379U 22045BA  26148.29569199  .00000336  00000+0  39201-4 0  9990
2 52379  53.2036 191.7528 0001231  67.9308 292.1815 15.08837720227943
STARLINK-3793           
1 52380U 22045BB  26148.27453649  .00000271  00000+0  35110-4 0  9995
2 52380  53.2035 181.8771 0001211  81.1487 278.9642 15.08835887228075
